IRIDIUM 36 [-]          
1 24967U 97056C   24072.17733565  .00000668  00000+0  22038-3 0  9994
2 24967  86.4025   6.9982 0002383  84.2786 275.8683 14.36670207385865
IRIDIUM 39 [-]          
1 25042U 97069D   24072.18480243  .00000970  00000+0  25662-3 0  9998
2 25042  86.3903  49.0428 0020219  52.4931 307.8106 14.47742669382344
IRIDIUM 38 [-]          
1 25043U 97069E   24072.70243024  .00000610  00000+0  19890-3 0  9998
2 25043  86.3911  67.1949 0003074 126.1291 234.0192 14.37107163379919
IRIDIUM 42 [-]          
1 25077U 97077A   24071.73520262  .00000548  00000+0  18426-3 0  9992
2 25077  86.3909  73.2110 0002246 106.2168 253.9276 14.35418770374839
IRIDIUM 44 [-]          
1 25078U 97077B   24071.88536581  .00000626  00000+0  19565-3 0  9992
2 25078  86.3926  56.3019 0004077  96.9251 263.2412 14.39241651377218
IRIDIUM 45 [-]          
1 25104U 97082A   24072.06746023  .00011415  00000+0  68677-3 0  9999
2 25104  86.3688 267.7436 0166556 231.7796 126.8344 14.99729144382531
IRIDIUM 24 [-]          
1 25105U 97082B   24071.81549635  .00000485  00000+0  14447-3 0  9993
2 25105  86.3856 276.1088 0012180 155.2160 204.9627 14.41012740376858
IRIDIUM 51 [-]          
1 25262U 98018A   24071.52903723  .00015220  00000+0  76512-3 0  9991
2 25262  86.3873 278.1072 0152887 180.8770 179.2224 15.07384367376684
